$$SOE
2461295.500000000, A.D. 2026-Sep-12 00:00:00.0000, 2.503320029090305E+08, -6.537574172038987E+08, 1.649635666510582E+07,
2461302.500000000, A.D. 2026-Sep-19 00:00:00.0000, 2.573927647116476E+08, -6.511579590638037E+08, 1.666879204969731E+07,
2461309.500000000, A.D. 2026-Sep-26 00:00:00.0000, 2.644171781945762E+08, -6.484665241245171E+08, 1.683887179463488E+07,
2461316.500000000, A.D. 2026-Oct-03 00:00:00.0000, 2.714042697231768E+08, -6.456835432135041E+08, 1.700657319140419E+07,
2461323.500000000, A.D. 2026-Oct-10 00:00:00.0000, 2.783530694293731E+08, -6.428094527827851E+08, 1.717187367644539E+07,
2461330.500000000, A.D. 2026-Oct-17 00:00:00.0000, 2.852626110645131E+08, -6.398446948626717E+08, 1.733475083405527E+07,
2461337.500000000, A.D. 2026-Oct-24 00:00:00.0000, 2.921319318431724E+08, -6.367897171152784E+08, 1.749518239174756E+07,
2461344.500000000, A.D. 2026-Oct-31 00:00:00.0000, 2.989600723766609E+08, -6.336449730543085E+08, 1.765314619367239E+07,
2461351.500000000, A.D. 2026-Nov-07 00:00:00.0000, 3.057460770353712E+08, -6.304109223569350E+08, 1.780862012721497E+07,
2461358.500000000, A.D. 2026-Nov-14 00:00:00.0000, 3.124889949409451E+08, -6.270880303804350E+08, 1.796158205709037E+07,
2461365.500000000, A.D. 2026-Nov-21 00:00:00.0000, 3.191878797764655E+08, -6.236767662018476E+08, 1.811200998908830E+07,
2461372.500000000, A.D. 2026-Nov-28 00:00:00.0000, 3.258417874163613E+08, -6.201776021885374E+08, 1.825988230942240E+07,
2461379.500000000, A.D. 2026-Dec-05 00:00:00.0000, 3.324497749955413E+08, -6.165910157556283E+08, 1.840517771431237E+07,
2461386.500000000, A.D. 2026-Dec-12 00:00:00.0000, 3.390109015828893E+08, -6.129174901992632E+08, 1.854787506919712E+07,
2461393.500000000, A.D. 2026-Dec-19 00:00:00.0000, 3.455242285719879E+08, -6.091575145993954E+08, 1.868795337147972E+07,
2461400.500000000, A.D. 2026-Dec-26 00:00:00.0000, 3.519888196466564E+08, -6.053115836602492E+08, 1.882539175915727E+07,
2461407.500000000, A.D. 2027-Jan-02 00:00:00.0000, 3.584037405968719E+08, -6.013801976794826E+08, 1.896016952460918E+07,
2461414.500000000, A.D. 2027-Jan-09 00:00:00.0000, 3.647680591014001E+08, -5.973638626260433E+08, 1.909226612458909E+07,
2461421.500000000, A.D. 2027-Jan-16 00:00:00.0000, 3.710808445114024E+08, -5.932630903180658E+08, 1.922166118396559E+07,
2461428.500000000, A.D. 2027-Jan-23 00:00:00.0000, 3.773411676796020E+08, -5.890783987405531E+08, 1.934833448576194E+07,
2461435.500000000, A.D. 2027-Jan-30 00:00:00.0000, 3.835481010212173E+08, -5.848103125507119E+08, 1.947226592632592E+07,
2461442.500000000, A.D. 2027-Feb-06 00:00:00.0000, 3.897007192299442E+08, -5.804593634310780E+08, 1.959343542438126E+07,
2461449.500000000, A.D. 2027-Feb-13 00:00:00.0000, 3.957981001873240E+08, -5.760260890711195E+08, 1.971182292576095E+07,
2461456.500000000, A.D. 2027-Feb-20 00:00:00.0000, 4.018393237002768E+08, -5.715110315686417E+08, 1.982740865583465E+07,
2461463.500000000, A.D. 2027-Feb-27 00:00:00.0000, 4.078234694615734E+08, -5.669147384645795E+08, 1.994017322874507E+07,
2461470.500000000, A.D. 2027-Mar-06 00:00:00.0000, 4.137496172508461E+08, -5.622377644883919E+08, 2.005009749352700E+07,
2461477.500000000, A.D. 2027-Mar-13 00:00:00.0000, 4.196168477758469E+08, -5.574806719647194E+08, 2.015716243119586E+07,
2461484.500000000, A.D. 2027-Mar-20 00:00:00.0000, 4.254242430245294E+08, -5.526440307161613E+08, 2.026134913803318E+07,
2461491.500000000, A.D. 2027-Mar-27 00:00:00.0000, 4.311708863299364E+08, -5.477284180112745E+08, 2.036263883155915E+07,
2461498.500000000, A.D. 2027-Apr-03 00:00:00.0000, 4.368558623507233E+08, -5.427344186056169E+08, 2.046101285657993E+07,
2461505.500000000, A.D. 2027-Apr-10 00:00:00.0000, 4.424782570284182E+08, -5.376626248527906E+08, 2.055645268750224E+07,
2461512.500000000, A.D. 2027-Apr-17 00:00:00.0000, 4.480371575432937E+08, -5.325136368996722E+08, 2.064893992364851E+07,
2461519.500000000, A.D. 2027-Apr-24 00:00:00.0000, 4.535316523479083E+08, -5.272880630277123E+08, 2.073845626516199E+07,
2461526.500000000, A.D. 2027-May-01 00:00:00.0000, 4.589608315780042E+08, -5.219865201121436E+08, 2.082498344424769E+07,
2461533.500000000, A.D. 2027-May-08 00:00:00.0000, 4.643237881485038E+08, -5.166096334505419E+08, 2.090850314472973E+07,
2461540.500000000, A.D. 2027-May-15 00:00:00.0000, 4.696196180381857E+08, -5.111580350075454E+08, 2.098899712519914E+07,
2461547.500000000, A.D. 2027-May-22 00:00:00.0000, 4.748474181993212E+08, -5.056323626676253E+08, 2.106644747744882E+07,
2461554.500000000, A.D. 2027-May-29 00:00:00.0000, 4.800062854481572E+08, -5.000332619641533E+08, 2.114083659245852E+07,
2461561.500000000, A.D. 2027-Jun-05 00:00:00.0000, 4.850953172212809E+08, -4.943613871530150E+08, 2.121214700881019E+07,
2461568.500000000, A.D. 2027-Jun-12 00:00:00.0000, 4.901136121905719E+08, -4.886174011992173E+08, 2.128036136309275E+07,
2461575.500000000, A.D. 2027-Jun-19 00:00:00.0000, 4.950602704057927E+08, -4.828019756117015E+08, 2.134546239641330E+07,
2461582.500000000, A.D. 2027-Jun-26 00:00:00.0000, 4.999343932442467E+08, -4.769157903877683E+08, 2.140743297022048E+07,
2461589.500000000, A.D. 2027-Jul-03 00:00:00.0000, 5.047350832996367E+08, -4.709595340588600E+08, 2.146625608021331E+07,
2461596.500000000, A.D. 2027-Jul-10 00:00:00.0000, 5.094614442469540E+08, -4.649339038289961E+08, 2.152191486590299E+07,
2461603.500000000, A.D. 2027-Jul-17 00:00:00.0000, 5.141125807197027E+08, -4.588396058447014E+08, 2.157439260955387E+07,
2461610.500000000, A.D. 2027-Jul-24 00:00:00.0000, 5.186875983558257E+08, -4.526773556591201E+08, 2.162367270524618E+07,
2461617.500000000, A.D. 2027-Jul-31 00:00:00.0000, 5.231856044238237E+08, -4.464478786546338E+08, 2.166973857978526E+07,
2461624.500000000, A.D. 2027-Aug-07 00:00:00.0000, 5.276057088286079E+08, -4.401519092722485E+08, 2.171257367819417E+07,
2461631.500000000, A.D. 2027-Aug-14 00:00:00.0000, 5.319470231961871E+08, -4.337901893013147E+08, 2.175216170429623E+07,
2461638.500000000, A.D. 2027-Aug-21 00:00:00.0000, 5.362086586552286E+08, -4.273634685938209E+08, 2.178848678476673E+07,
2461645.500000000, A.D. 2027-Aug-28 00:00:00.0000, 5.403897257463919E+08, -4.208725069997006E+08, 2.182153334021875E+07,
2461652.500000000, A.D. 2027-Sep-04 00:00:00.0000, 5.444893352785379E+08, -4.143180750206327E+08, 2.185128597602470E+07,
2461659.500000000, A.D. 2027-Sep-11 00:00:00.0000, 5.485065987368367E+08, -4.077009538436689E+08, 2.187772946662927E+07,
2461666.500000000, A.D. 2027-Sep-18 00:00:00.0000, 5.524406283762276E+08, -4.010219354048368E+08, 2.190084876778004E+07,
2461673.500000000, A.D. 2027-Sep-25 00:00:00.0000, 5.562905372293396E+08, -3.942818225601894E+08, 2.192062902909093E+07,
2461680.500000000, A.D. 2027-Oct-02 00:00:00.0000, 5.600554391041671E+08, -3.874814293365022E+08, 2.193705560205661E+07,
2461687.500000000, A.D. 2027-Oct-09 00:00:00.0000, 5.637344485942101E+08, -3.806215812658293E+08, 2.195011404084437E+07,
2461694.500000000, A.D. 2027-Oct-16 00:00:00.0000, 5.673266811644607E+08, -3.737031158584537E+08, 2.195979008535749E+07,
2461701.500000000, A.D. 2027-Oct-23 00:00:00.0000, 5.708312535733274E+08, -3.667268832194783E+08, 2.196606960206644E+07,
2461708.500000000, A.D. 2027-Oct-30 00:00:00.0000, 5.742472850055940E+08, -3.596937461982691E+08, 2.196893849798396E+07,
2461715.500000000, A.D. 2027-Nov-06 00:00:00.0000, 5.775738977536232E+08, -3.526045789424369E+08, 2.196838280664411E+07,
2461722.500000000, A.D. 2027-Nov-13 00:00:00.0000, 5.808102154618214E+08, -3.454602659327622E+08, 2.196438895849794E+07,
2461729.500000000, A.D. 2027-Nov-20 00:00:00.0000, 5.839553618361173E+08, -3.382617036849241E+08, 2.195694379089789E+07,
2461736.500000000, A.D. 2027-Nov-27 00:00:00.0000, 5.870084614359559E+08, -3.310098021532577E+08, 2.194603439156760E+07,
2461743.500000000, A.D. 2027-Dec-04 00:00:00.0000, 5.899686405254276E+08, -3.237054849224828E+08, 2.193164803588443E+07,
2461750.500000000, A.D. 2027-Dec-11 00:00:00.0000, 5.928350274330462E+08, -3.163496891513168E+08, 2.191377218974523E+07,
2461757.500000000, A.D. 2027-Dec-18 00:00:00.0000, 5.956067526951408E+08, -3.089433656068711E+08, 2.189239452514148E+07,
2461764.500000000, A.D. 2027-Dec-25 00:00:00.0000, 5.982829491349050E+08, -3.014874787916525E+08, 2.186750293438895E+07,
2461771.500000000, A.D. 2028-Jan-01 00:00:00.0000, 6.008627519187615E+08, -2.939830071482357E+08, 2.183908554050435E+07,
$$EOE